[{"OBJECT_NAME":"OBJECT A","OBJECT_ID":"2025-013A","EPOCH":"2026-03-09T23:29:31.895232","MEAN_MOTION":15.29260221,"ECCENTRICITY":0.0010321,"INCLINATION":97.6364,"RA_OF_ASC_NODE":244.5149,"ARG_OF_PERICENTER":282.3775,"MEAN_ANOMALY":77.6309,"EPHEMERIS_TYPE":0,"CLASSIFICATION_TYPE":"U","NORAD_CAT_ID":62729,"ELEMENT_SET_NO":999,"REV_AT_EPOCH":6276,"BSTAR":0.0013206527,"MEAN_MOTION_DOT":0.00037616,"MEAN_MOTION_DDOT":0},{"OBJECT_NAME":"STARLINK-35595","OBJECT_ID":"2025-236R","EPOCH":"2026-03-09T12:08:38.944320","MEAN_MOTION":15.30193079,"ECCENTRICITY":0.00012692,"INCLINATION":53.1592,"RA_OF_ASC_NODE":104.9251,"ARG_OF_PERICENTER":91.371,"MEAN_ANOMALY":268.7436,"EPHEMERIS_TYPE":0,"CLASSIFICATION_TYPE":"U","NORAD_CAT_ID":66101,"ELEMENT_SET_NO":999,"REV_AT_EPOCH":2285,"BSTAR":0.0010134972,"MEAN_MOTION_DOT":0.00029772,"MEAN_MOTION_DDOT":0}]
